H1 CPF  1  HTS 2005 12  6 12  8401 lageos1          NONE
H2  7603901 1155     8820 2005 12 06  0  0  0 2005 12 14  0  0  0   300 1 1  0 0 0
H5  0.2510 
H9 
10 0 53712  30600.00000  0    5094471.691   -9655011.169   -5698885.100
20 0     -1499.982630     -3518.056726      4660.737532
10 0 53712  30900.00000  0    4576672.963  -10605974.482   -4250418.498
20 0     -1941.524197     -2808.384411      4980.308360
10 0 53712  31200.00000  0    3936412.108  -11332871.044   -2720234.120
20 0     -2314.581459     -2027.067932      5204.597511
10 0 53712  31500.00000  0    3195766.474  -11816807.708   -1137659.333
20 0     -2609.289016     -1191.726468      5328.955827
10 0 53712  31800.00000  0    2379446.694  -12044413.159     466862.059
20 0     -2817.998073      -321.482851      5350.606357
10 0 53712  32100.00000  0    1514097.631  -12008223.519    2062344.917
20 0     -2935.493806       563.480403      5268.728196
10 0 53712  32400.00000  0     627543.290  -11706928.669    3617857.610
20 0     -2959.150332      1442.403828      5084.503557
10 0 53712  32700.00000  0    -252004.544  -11145469.407    5103125.026
20 0     -2889.016644      2294.460581      4801.124663
10 0 53712  33000.00001  0   -1096752.495  -10334979.397    6489127.315
20 0     -2727.828854      3099.279184      4423.758193
10 0 53712  33300.00000  0   -1880124.057   -9292570.159    7748681.483
20 0     -2480.946321      3837.464658      3959.466424
10 0 53712  33600.00000  0   -2577527.479   -8040961.867    8856992.880
20 0     -2156.211850      4491.102795      3417.085618
10 0 53712  33900.00000  0   -3167070.623   -6607967.278    9792164.014
20 0     -1763.738696      5044.232565      2807.063565
10 0 53712  34200.00000  0   -3630201.573   -5025840.507   10535648.875
20 0     -1315.629638      5483.272429      2141.259406
10 0 53712  34500.00000  0   -3952255.693   -3330506.467   11072642.073
20 0      -825.635665      5797.387658      1432.709972
10 0 53712  34800.00000  0   -4122892.409   -1560690.354   11392393.466
20 0      -308.763831      5978.787608       695.367657
10 0 53712  35100.00000  0   -4136408.093     243030.362   11488440.581
20 0       219.154589      6022.943758       -56.184570
10 0 53712  35400.00000  0   -3991914.986    2039226.562   11358752.872
20 0       741.923130      5928.721454      -807.034780
10 0 53712  35700.00001  0   -3693380.028    3786644.073   11005783.854
20 0      1243.452785      5698.420732     -1542.253550
10 0 53712  36000.00000  0   -3249521.597    5445228.589   10436429.176
20 0      1708.234186      5337.724243     -2247.208328
10 0 53712  36300.00000  0   -2673566.474    6977121.061    9661890.851
20 0      2121.794928      4855.552715     -2907.873492
10 0 53712  36600.00000  0   -1982873.603    8347596.218    8697450.045
20 0      2471.127892      4263.831125     -3511.128658
10 0 53712  36900.00000  0   -1198435.422    9525918.256    7562153.081
20 0      2745.076961      3577.171563     -4045.037646
10 0 53712  37200.00000  0    -344271.436   10486089.966    6278417.586
20 0      2934.667777      2812.481716     -4499.100743
10 0 53712  37500.00000  0     553267.846   11207474.675    4871567.809
20 0      3033.372865      1988.510528     -4864.473491
10 0 53712  37800.00000  0    1466265.548   11675274.156    3369310.107
20 0      3037.302581      1125.344871     -5134.145970
10 0 53712  38100.00000  0    2366048.464   11880850.156    1801161.196
20 0      2945.315925       243.873114     -5303.077539
10 0 53712  38400.00001  0    3224017.898   11821882.209     197843.140
20 0      2759.048339      -634.766890     -5368.283551
10 0 53712  38700.00000  0    4012476.432   11502359.758   -1409340.283
20 0      2482.857073     -1489.737373     -5328.872660
10 0 53712  39000.00000  0    4705426.366   10932411.955   -2989131.061
20 0      2123.687853     -2301.030544     -5186.035497
10 0 53712  39300.00000  0    5279317.132   10127983.410   -4510934.043
20 0      1690.869316     -3049.963246     -4942.987290
10 0 53712  39600.00000  0    5713721.259    9110368.528   -5945410.392
20 0      1195.843822     -3719.623001     -4604.868413
10 0 53712  39900.00000  0    5991921.305    7905620.721   -7265035.525
20 0       651.844947     -4295.254575     -4178.608028
10 0 53712  40200.00000  0    6101393.465    6543855.602   -8444611.363
20 0        73.533082     -4764.579147     -3672.756913
10 0 53712  40500.00000  0    6034177.039    5058469.166   -9461724.613
20 0      -523.399117     -5118.041341     -3097.295914
10 0 53712  40800.00000  0    5787122.452    3485292.956  -10297144.720
20 0     -1122.640010     -5348.982223     -2463.426285
10 0 53712  41100.00001  0    5362013.825    1861708.387  -10935156.921
20 0     -1707.680283     -5453.738778     -1783.347624
10 0 53712  41400.00000  0    4765565.172     225741.981  -11363827.445
20 0     -2262.232654     -5431.672310     -1070.028284
10 0 53712  41700.00000  0    4009292.001   -1384837.717  -11575199.210
20 0     -2770.641439     -5285.129512      -336.972128
10 0 53712  42000.00000  0    3109262.516   -2933402.010  -11565417.343
20 0     -3218.274537     -5019.340693       402.015605
10 0 53712  42300.00000  0    2085734.688   -4385304.533  -11334784.590
20 0     -3591.891224     -4642.259874      1133.061396
10 0 53712  42600.00000  0     962687.379   -5708667.648  -10887747.109
20 0     -3879.979712     -4164.351435      1842.454237
10 0 53712  42900.00000  0    -232744.546   -6875097.382  -10232811.494
20 0     -4073.058752     -3598.327866      2516.873143
10 0 53712  43200.00000  0   -1470919.489   -7860312.905   -9382394.167
20 0     -4163.937583     -2958.843069      3143.610394
10 0 53712  43500.00000  0   -2720409.416   -8644677.917   -8352604.587
20 0     -4147.928588     -2262.145853      3710.789161
10 0 53712  43800.00001  0   -3948776.142   -9213622.722   -7162964.249
20 0     -4023.006982     -1525.698618      4207.573629
10 0 53712  44100.00000  0   -5123386.903   -9557947.405   -5836064.092
20 0     -3789.912039      -767.767009      4624.368984
10 0 53712  44400.00000  0   -6212250.867   -9673998.368   -4397163.842
20 0     -3452.184814        -6.987300      4953.007864
10 0 53712  44700.00000  0   -7184856.910   -9563712.745   -2873737.956
20 0     -3016.138142       738.080436      5186.919182
10 0 53712  45000.00000  0   -8012991.843   -9234527.774   -1294974.142
20 0     -2490.756006      1449.404062      5321.274656
10 0 53712  45300.00000  0   -8671517.685   -8699155.228     308768.122
20 0     -1887.521113      2109.925414      5353.108141
10 0 53712  45600.00000  0   -9139086.546   -7975224.324    1906530.187
20 0     -1220.171729      2703.989090      5281.402937
10 0 53712  45900.00000  0   -9398772.335   -7084800.094    3467347.658
20 0      -504.391205      3217.741874      5107.142714
10 0 53712  46200.00000  0   -9438599.973   -6053787.856    4960853.200
20 0       242.563728      3639.490629      4833.322532
10 0 53712  46500.00001  0   -9251954.931   -4911238.008    6357876.331
20 0      1002.287381      3960.007111      4464.917586
10 0 53712  46800.00000  0   -8837858.869   -3688568.643    7631027.373
20 0      1755.691409      4172.769388      4008.808627
10 0 53712  47100.00000  0   -8201100.665   -2418726.345    8755252.542
20 0      2483.500354      4274.131362      3473.664476
10 0 53712  47400.00000  0   -7352216.123   -1135307.722    9708347.581
20 0      3166.762460      4263.414103      2869.783427
10 0 53712  47700.00000  0   -6307313.982     128334.237   10471418.003
20 0      3787.361094      4142.915317      2208.896588
10 0 53712  48000.00000  0   -5087750.267    1339974.187   11029275.131
20 0      4328.511862      3917.835805      1503.937200
10 0 53712  48300.00000  0   -3719657.492    2469364.106   11370758.430
20 0      4775.230737      3596.124470       768.780891
10 0 53712  48600.00000  0   -2233339.535    3489024.730   11488976.259
20 0      5114.759249      3188.245913        17.962476
10 0 53712  48900.00000  0    -662547.022    4374956.425   11381458.909
20 0      5336.933821      2706.876988      -733.624454
10 0 53712  49200.00001  0     956348.258    5107249.410   11050219.778
20 0      5434.487795      2166.540848     -1471.038428
10 0 53712  49500.00000  0    2585258.220    5670576.106   10501722.588
20 0      5403.276534      1583.189009     -2179.604379
10 0 53712  49800.00000  0    4185338.370    6054551.817    9746754.699
20 0      5242.418020       973.743560     -2845.224192
10 0 53712  50100.00000  0    5717976.498    6253953.752    8800208.727
20 0      4954.343611       355.612955     -3454.676213
10 0 53712  50400.00000  0    7145782.733    6268792.612    7680776.890
20 0      4544.756123      -253.804206     -3995.896336
10 0 53712  50700.00000  0    8433553.095    6104235.406    6410564.715
20 0      4022.495345      -837.612276     -4458.233297
10 0 53712  51000.00000  0    9549179.183    5770382.703    5014632.904
20 0      3399.314220     -1379.893263     -4832.671193
10 0 53712  51300.00000  0   10464478.093    5281908.129    3520478.171
20 0      2689.572272     -1866.148127     -5112.012881
10 0 53712  51600.00000  0   11155919.155    4657572.243    1957465.571
20 0      1909.856218     -2283.690727     -5291.019185
10 0 53712  51900.00001  0   11605227.495    3919626.874     356226.159
20 0      1078.540464     -2621.982310     -5366.500475
10 0 53712  52200.00000  0   11799848.566    3093129.277   -1251965.467
20 0       215.302430     -2872.896850     -5337.359036
10 0 53712  52500.00000  0   11733262.528    2205187.941   -2835818.969
20 0      -659.391055     -3030.910461     -5204.582616
10 0 53712  52800.00000  0   11405142.291    1284163.469   -4364647.087
20 0     -1524.809634     -3093.211219     -4971.191434
10 0 53712  53100.00000  0   10821353.979     358848.546   -5808962.027
20 0     -2360.481404     -3059.728837     -4642.142490
99